COSMOS 1892             
1 18421U 87088A   19134.07798560  .00000563  00000-0  26928-4 0  9992
2 18421  82.4980 309.6843 0015744  22.1648 338.0262 15.16810844724078
SL-14 R/B               
1 18749U 88001B   19133.75605627  .00000074  00000-0  61539-5 0  9991
2 18749  82.5159  13.1482 0018860 174.0271 250.3573 14.83187200672470
COSMOS 1933             
1 18958U 88020A   19133.58559988  .00000480  00000-0  32994-4 0  9996
2 18958  82.5275 152.6540 0013301  78.2839 281.9878 15.03585370696012
SL-3 R/B                
1 19046U 88032B   19133.91415218  .00000880  00000-0  69590-4 0  9998
2 19046  97.4367 166.8689 0037623 128.5123 231.9486 15.02556039676812
SL-16 R/B               
1 19120U 88039B   19133.84107995  .00000148  00000-0  93362-4 0  9991
2 19120  71.0144 295.0181 0022943 206.5453 153.4499 14.19196137604819
COSMOS 1953             
1 19210U 88050A   19134.29323508  .00000043  00000-0  89448-6 0  9990
2 19210  82.5170  78.1826 0014774  51.0303 309.2237 15.05765429682573
SL-8 R/B                
1 19257U 88053B   19133.84866625  .00000036  00000-0  20685-4 0  9994
2 19257  74.0506  17.5615 0019500  96.5967 334.3266 14.37436138618440
COSMOS 1975             
1 19573U 88093A   19134.24425147  .00000487  00000-0  32451-4 0  9998
2 19573  82.5221  31.7573 0016110  87.0466 273.2604 15.04676161664460
SL-14 R/B               
1 19574U 88093B   19134.19507095  .00000064  00000-0  48278-5 0  9992
2 19574  82.5343 214.3050 0021143 345.9589  72.7982 14.83297047652623
SL-16 R/B               
1 19650U 88102B   19133.95127585 -.00000208  00000-0 -81345-4 0  9996
2 19650  71.0000 352.0764 0015441 211.3635 148.6569 14.15778592574198
INTERCOSMOS 24          
1 20261U 89080A   19133.84393679  .00000061  00000-0  17724-4 0  9994
2 20261  82.6027 279.4866 1202245 292.2707  55.5302 12.56062885353706
SL-14 R/B               
1 20262U 89080C   19133.71429255  .00000092  00000-0  17980-4 0  9999
2 20262  82.5921 330.6103 1237940 110.8309 262.9644 12.48916865348542
DELTA 2 R/B(1)          
1 20303U 89085B   19133.92641081  .00001241  00000-0  42803-4 0  9995
2 20303  35.6261   4.5126 0098128 217.8149 141.5653 15.26192296607350
DELTA 1 R/B             
1 20323U 89089B   19134.13693129  .00000039  00000-0  19003-4 0  9995
2 20323  97.0715 339.8582 0073061  52.2204 308.5580 14.48300280555454
DELTA 2 R/B(1)          
1 20362U 89097B   19133.86849278  .00027072  00000-0  18291-3 0  9997
2 20362  35.6023 307.8296 0029142 355.9727 113.2768 15.73434134608653
ARIANE 40 R/B           
1 20443U 90005H   19133.74743156 -.00000013  00000-0  10518-4 0  9995
2 20443  98.6287 189.9552 0011684  96.0980 264.1538 14.38059943534520
DELTA 2 R/B(1)          
1 20453U 90008B   19134.15104797  .00000615  00000-0  36922-4 0  9991
2 20453  35.6254  95.4501 0283790 205.2836 153.3750 14.84847130551656
COSMOS 2058             
1 20465U 90010A   19133.91499247  .00000280  00000-0  21405-4 0  9995
2 20465  82.4872 298.7180 0016953 109.2982 251.0076 14.97867879568365
SL-14 R/B               
1 20466U 90010B   19133.99237178  .00000069  00000-0  58679-5 0  9996
2 20466  82.5036  81.5293 0019693 209.3027 150.7084 14.81354528580507
SL-14 R/B               
1 20511U 90018B   19134.23266663  .00000090  00000-0  87985-5 0  9990
2 20511  82.5256  25.8988 0017328 355.7665 122.0295 14.80011547575017
HST                     
1 20580U 90037B   19133.95952412  .00000543  00000-0  22210-4 0  9991
2 20580  28.4711  88.2083 0003057 102.2816 257.8128 15.09222165395489
SL-16 R/B               
1 20625U 90046B   19134.28661968 -.00000025  00000-0  11635-4 0  9996
2 20625  70.9975 128.1265 0012548 136.7167 223.4944 14.14646317496273
COSMOS 2084             
1 20663U 90055A   19134.20573743  .00000007  00000-0  19041-4 0  9991
2 20663  62.7949  64.4863 0081185 163.3181 197.0613 14.91974908563646
SL-6 R/B(2)             
1 20666U 90055D   19134.12627059 -.00000005  00000-0  17648-4 0  9995
2 20666  62.7865 342.0491 0046722 194.8779 165.0944 14.92240326565025
SL-8 R/B                
1 20775U 90078B   19134.22706664  .00002043  00000-0  99625-4 0  9990
2 20775  82.9291 196.3811 0577452 353.6704   5.7391 14.33274616448380
SL-8 R/B                
1 21088U 91006B   19134.19684801  .00000015  00000-0 -11964-6 0  9994
2 21088  82.9449 222.7966 0023008 168.3841 251.8611 13.77120781421395
OKEAN-3                 
1 21397U 91039A   19134.22876262  .00000247  00000-0  21254-4 0  9998
2 21397  82.5233 197.0803 0019420  71.1045 289.2278 14.92799443513615
COSMOS 2151             
1 21422U 91042A   19134.03213865  .00000201  00000-0  17215-4 0  9996
2 21422  82.4982 304.1467 0015452 127.0669 233.1966 14.92043575512254
SL-14 R/B               
1 21423U 91042B   19133.81816804  .00000087  00000-0  83843-5 0  9997
2 21423  82.4967  31.3352 0018794 128.6322 231.6577 14.79762376505452
ERS-1                   
1 21574U 91050A   19133.96947657  .00000038  00000-0  27186-4 0  9993
2 21574  98.5472  83.4788 0033863  41.0828 319.2900 14.37694715457568
ARIANE 40 R/B           
1 21610U 91050F   19134.21491510  .00000011  00000-0  17285-4 0  9995
2 21610  98.5106 201.3272 0003729  40.1198  25.5952 14.40870660460343
INTERCOSMOS 25          
1 21819U 91086A   19133.75328585  .00000645  00000-0  12362-3 0  9997
2 21819  82.5865   6.1413 1518521  45.8885 325.7468 12.04959488196026
SL-14 R/B               
1 21820U 91086B   19134.18401524  .00000004  00000-0  10233-5 0  9998
2 21820  82.5654  67.8770 1575043 260.8487  81.1767 11.93448248189800
SL-8 R/B                
1 21876U 92008B   19133.91356258 -.00000001  00000-0 -16876-4 0  9994
2 21876  82.9237 320.1198 0033553 251.4118 224.1998 13.75635870366805
SL-8 R/B                
1 21938U 92020B   19133.74606000  .00000012  00000-0 -31054-5 0  9998
2 21938  82.9323 204.0653 0030252  53.6407  61.4646 13.75277144358597
COSMOS 2219             
1 22219U 92076A   19134.27760303 -.00000330  00000-0 -14955-3 0  9991
2 22219  71.0585 183.6613 0016380  39.3126 320.9182 14.13640606366588
SL-16 R/B               
1 22220U 92076B   19133.94606473 -.00000268  00000-0 -11065-3 0  9992
2 22220  71.0018  34.6726 0014998 289.2113 146.6824 14.16441763368962
COSMOS 2221             
1 22236U 92080A   19133.94081884  .00000185  00000-0  17562-4 0  9992
2 22236  82.5055 122.0649 0015865 206.1046 153.9373 14.87826047409720
SL-16 R/B               
1 22285U 92093B   19134.19190867  .00000233  00000-0  14493-3 0  9993
2 22285  71.0215 192.2111 0003648 176.7491 183.3656 14.15033890360993
COSMOS 2228             
1 22286U 92094A   19133.95092732  .00000183  00000-0  17177-4 0  9997
2 22286  82.5209  77.7989 0020534 335.5864  24.4379 14.88041027404881
SL-16 R/B               
1 22566U 93016B   19133.91400004 -.00000120  00000-0 -37338-4 0  9998
2 22566  71.0098  46.5264 0009589 167.9049 192.2305 14.14960265349671
COSMOS 2242             
1 22626U 93024A   19133.95763999  .00000225  00000-0  21794-4 0  9996
2 22626  82.5202 105.7563 0018283 335.7548  24.2807 14.87900701409309
SL-16 R/B               
1 22803U 93059B   19133.66576616 -.00000179  00000-0 -65224-4 0  9993
2 22803  70.9909 223.8701 0015646  40.9400 319.2895 14.16804228326793
ARIANE 40 R/B           
1 22830U 93061H   19133.71010714 -.00000014  00000-0  12078-4 0  9990
2 22830  98.8183 172.8809 0011877  59.4233 300.8120 14.31434438337494
COSMOS 2278             
1 23087U 94023A   19133.92921527 -.00000182  00000-0 -71066-4 0  9999
2 23087  71.0528 344.8156 0010799 238.5227 121.4840 14.13780471292583
SL-16 R/B               
1 23088U 94023B   19133.83869022 -.00000119  00000-0 -37079-4 0  9997
2 23088  70.9996 261.9716 0002108 161.9904 198.1294 14.14670880293654
SL-16 R/B               
1 23343U 94074B   19134.14678959  .00000016  00000-0  96445-5 0  9996
2 23343  98.0556 184.2357 0006973  10.6830  49.4566 14.76776559319546
SL-16 R/B               
1 23405U 94077B   19133.57927555 -.00000178  00000-0 -67011-4 0  9990
2 23405  70.9817 193.3296 0003747 310.1121  49.9672 14.15208480263899
ERS-2                   
1 23560U 95021A   19134.27373150  .00001504  00000-0  68726-4 0  9992
2 23560  98.5019 229.4992 0004840  97.0515 263.1269 15.22505238281249
ARIANE 40+ R/B          
1 23561U 95021B   19133.93195093  .00000033  00000-0  26184-4 0  9991
2 23561  98.7688 160.8678 0006966  11.2634  55.1662 14.37920062261014
SL-16 R/B               
1 23705U 95058B   19133.93911728 -.00000279  00000-0 -11904-3 0  9999
2 23705  71.0235   9.2839 0014236 310.5460  49.4422 14.15124181215318
SL-16 R/B               
1 24298U 96051B   19133.88910682  .00000017  00000-0  35427-4 0  9998
2 24298  70.8280  35.2004 0019190 231.3656 128.5747 14.12397317169796
ORBVIEW 2 (SEASTAR)     
1 24883U 97037A   19134.24995586  .00000052  00000-0  34610-4 0  9992
2 24883  98.5801 245.2738 0002200 177.7276 182.3919 14.33503449151635
SL-16 R/B               
1 25400U 98043G   19133.91001884 -.00000025  00000-0  74085-5 0  9990
2 25400  98.5703  73.1303 0011004  65.9495 294.2835 14.25440352 84180
SL-16 R/B               
1 25407U 98045B   19133.94977221 -.00000107  00000-0 -29922-4 0  9990
2 25407  71.0129  19.2841 0009556 235.0291 124.9935 14.15783490 74390
ISS (ZARYA)             
1 25544U 98067A   19134.56970047  .00001786  00000-0  35909-4 0  9998
2 25544  51.6417 168.2377 0001369 352.6849 127.3920 15.52670060170033
SL-8 R/B                
1 25723U 99022C   19134.17037764  .00012273  00000-0  12700-3 0  9992
2 25723  48.4147  26.7010 0007624 181.6063 178.4863 15.65019137115124
CZ-4B R/B               
1 25732U 99025C   19133.94438362 -.00000020  00000-0  12700-4 0  9997
2 25732  98.9786 154.0717 0036273 271.3427 148.1835 14.17662903 35074
OKEAN-O                 
1 25860U 99039A   19133.89999162  .00000057  00000-0  15906-4 0  9998
2 25860  98.2268 140.5368 0001912  84.8564 275.2863 14.76604291 66402
